STARLINK-5095           
1 56885U 23083K   23328.03370326 -.00001372  00000+0 -86519-4 0  9997
2 56885  43.0027 308.0968 0000779 255.1627 104.9129 15.02530810 25014
STARLINK-5496           
1 56886U 23083L   23328.02371197 -.00000677  00000+0 -35025-4 0  9997
2 56886  43.0042 308.0225 0001688 258.1662 101.8991 15.02526599 25012
STARLINK-6180           
1 56887U 23083M   23328.02815287 -.00001061  00000+0 -63449-4 0  9990
2 56887  43.0048 308.0580 0001143 267.2101  92.8611 15.02533712 25011
STARLINK-6181           
1 56888U 23083N   23328.07687349 -.00001625  00000+0 -10528-3 0  9997
2 56888  43.0030 307.5602 0001029 250.7329 109.3402 15.02529919 25021
STARLINK-6169           
1 56889U 23083P   23328.02038283 -.00004112  00000+0 -28962-3 0  9995
2 56889  43.0046 307.9985 0001190 259.0862 100.9846 15.02523316 25013
STARLINK-5528           
1 56890U 23083Q   23328.01150137  .00001109  00000+0  97175-4 0  9993
2 56890  43.0040 307.9308 0001094 246.3614 113.7113 15.02530494 25019
STARLINK-6213           
1 56891U 23083R   23328.01705380 -.00000767  00000+0 -41753-4 0  9992
2 56891  43.0035 307.9726 0001076 260.3914  99.6807 15.02529470 25011
STARLINK-6219           
1 56892U 23083S   23328.00373617 -.00001601  00000+0 -10345-3 0  9996
2 56892  43.0037 307.8692 0001151 255.3358 104.7357 15.02536755 25017
STARLINK-6216           
1 56893U 23083T   23328.08020106 -.00002973  00000+0 -20516-3 0  9991
2 56893  43.0039 307.5870 0001077 248.8251 111.2477 15.02526046 25020
STARLINK-6144           
1 56894U 23083U   23328.13780164 -.00002580  00000+0 -17602-3 0  9991
2 56894  43.0025 307.1573 0000834 248.5013 111.5740 15.02526205 25039
STARLINK-6208           
1 56895U 23083V   23328.00706897  .00001297  00000+0  11103-3 0  9991
2 56895  43.0033 307.8956 0001013 256.1487 103.9243 15.02535214 25810
STARLINK-6202           
1 56896U 23083W   23328.13003062 -.00002765  00000+0 -18976-3 0  9998
2 56896  43.0031 307.0973 0001092 225.0869 134.9885 15.02526539 25036
STARLINK-6200           
1 56897U 23083X   23328.00040526 -.00001974  00000+0 -13113-3 0  9990
2 56897  43.0038 307.8468 0001456 271.8311  88.2365 15.02529670 25017
STARLINK-6205           
1 56898U 23083Y   23328.05689181 -.00004445  00000+0 -31432-3 0  9992
2 56898  43.0038 307.4108 0001167 259.3280 100.7431 15.02521206 25022
STARLINK-6203           
1 56899U 23083Z   23328.12669937 -.00001219  00000+0 -75205-4 0  9991
2 56899  43.0033 307.0736 0000884 261.2828  98.7914 15.02524690 25039
STARLINK-6207           
1 56900U 23083AA  23327.99411943 -.00001899  00000+0 -12559-3 0  9996
2 56900  43.0037 295.6631 0001309 264.1300  95.9393 15.02530902 25158
STARLINK-6185           
1 56901U 23083AB  23328.12115038 -.00000274  00000+0 -52260-5 0  9990
2 56901  43.0024 307.0300 0001047 259.9477 100.1247 15.02536275 25035
