[{"OBJECT_NAME":"STARLINK-5095","OBJECT_ID":"2023-083K","EPOCH":"2023-11-24T00:48:31.961664","MEAN_MOTION":15.0253081,"ECCENTRICITY":7.79e-5,"INCLINATION":43.0027,"RA_OF_ASC_NODE":308.0968,"ARG_OF_PERICENTER":255.1627,"MEAN_ANOMALY":104.9129,"EPHEMERIS_TYPE":0,"CLASSIFICATION_TYPE":"U","NORAD_CAT_ID":56885,"ELEMENT_SET_NO":999,"REV_AT_EPOCH":2501,"BSTAR":-8.6519e-5,"MEAN_MOTION_DOT":-1.372e-5,"MEAN_MOTION_DDOT":0},{"OBJECT_NAME":"STARLINK-5496","OBJECT_ID":"2023-083L","EPOCH":"2023-11-24T00:34:08.714208","MEAN_MOTION":15.02526599,"ECCENTRICITY":0.0001688,"INCLINATION":43.0042,"RA_OF_ASC_NODE":308.0225,"ARG_OF_PERICENTER":258.1662,"MEAN_ANOMALY":101.8991,"EPHEMERIS_TYPE":0,"CLASSIFICATION_TYPE":"U","NORAD_CAT_ID":56886,"ELEMENT_SET_NO":999,"REV_AT_EPOCH":2501,"BSTAR":-3.5025e-5,"MEAN_MOTION_DOT":-6.77e-6,"MEAN_MOTION_DDOT":0},{"OBJECT_NAME":"STARLINK-6180","OBJECT_ID":"2023-083M","EPOCH":"2023-11-24T00:40:32.407968","MEAN_MOTION":15.02533712,"ECCENTRICITY":0.0001143,"INCLINATION":43.0048,"RA_OF_ASC_NODE":308.058,"ARG_OF_PERICENTER":267.2101,"MEAN_ANOMALY":92.8611,"EPHEMERIS_TYPE":0,"CLASSIFICATION_TYPE":"U","NORAD_CAT_ID":56887,"ELEMENT_SET_NO":999,"REV_AT_EPOCH":2501,"BSTAR":-6.3449e-5,"MEAN_MOTION_DOT":-1.061e-5,"MEAN_MOTION_DDOT":0},{"OBJECT_NAME":"STARLINK-6181","OBJECT_ID":"2023-083N","EPOCH":"2023-11-24T01:50:41.869536","MEAN_MOTION":15.02529919,"ECCENTRICITY":0.0001029,"INCLINATION":43.003,"RA_OF_ASC_NODE":307.5602,"ARG_OF_PERICENTER":250.7329,"MEAN_ANOMALY":109.3402,"EPHEMERIS_TYPE":0,"CLASSIFICATION_TYPE":"U","NORAD_CAT_ID":56888,"ELEMENT_SET_NO":999,"REV_AT_EPOCH":2502,"BSTAR":-0.00010528,"MEAN_MOTION_DOT":-1.625e-5,"MEAN_MOTION_DDOT":0},{"OBJECT_NAME":"STARLINK-6169","OBJECT_ID":"2023-083P","EPOCH":"2023-11-24T00:29:21.076512","MEAN_MOTION":15.02523316,"ECCENTRICITY":0.000119,"INCLINATION":43.0046,"RA_OF_ASC_NODE":307.9985,"ARG_OF_PERICENTER":259.0862,"MEAN_ANOMALY":100.9846,"EPHEMERIS_TYPE":0,"CLASSIFICATION_TYPE":"U","NORAD_CAT_ID":56889,"ELEMENT_SET_NO":999,"REV_AT_EPOCH":2501,"BSTAR":-0.00028962,"MEAN_MOTION_DOT":-4.112e-5,"MEAN_MOTION_DDOT":0},{"OBJECT_NAME":"STARLINK-5528","OBJECT_ID":"2023-083Q","EPOCH":"2023-11-24T00:16:33.718368","MEAN_MOTION":15.02530494,"ECCENTRICITY":0.0001094,"INCLINATION":43.004,"RA_OF_ASC_NODE":307.9308,"ARG_OF_PERICENTER":246.3614,"MEAN_ANOMALY":113.7113,"EPHEMERIS_TYPE":0,"CLASSIFICATION_TYPE":"U","NORAD_CAT_ID":56890,"ELEMENT_SET_NO":999,"REV_AT_EPOCH":2501,"BSTAR":9.7175e-5,"MEAN_MOTION_DOT":1.109e-5,"MEAN_MOTION_DDOT":0},{"OBJECT_NAME":"STARLINK-6213","OBJECT_ID":"2023-083R","EPOCH":"2023-11-24T00:24:33.448320","MEAN_MOTION":15.0252947,"ECCENTRICITY":0.0001076,"INCLINATION":43.0035,"RA_OF_ASC_NODE":307.9726,"ARG_OF_PERICENTER":260.3914,"MEAN_ANOMALY":99.6807,"EPHEMERIS_TYPE":0,"CLASSIFICATION_TYPE":"U","NORAD_CAT_ID":56891,"ELEMENT_SET_NO":999,"REV_AT_EPOCH":2501,"BSTAR":-4.1753e-5,"MEAN_MOTION_DOT":-7.67e-6,"MEAN_MOTION_DDOT":0},{"OBJECT_NAME":"STARLINK-6219","OBJECT_ID":"2023-083S","EPOCH":"2023-11-24T00:05:22.805088","MEAN_MOTION":15.02536755,"ECCENTRICITY":0.0001151,"INCLINATION":43.0037,"RA_OF_ASC_NODE":307.8692,"ARG_OF_PERICENTER":255.3358,"MEAN_ANOMALY":104.7357,"EPHEMERIS_TYPE":0,"CLASSIFICATION_TYPE":"U","NORAD_CAT_ID":56892,"ELEMENT_SET_NO":999,"REV_AT_EPOCH":2501,"BSTAR":-0.00010345,"MEAN_MOTION_DOT":-1.601e-5,"MEAN_MOTION_DDOT":0},{"OBJECT_NAME":"STARLINK-6216","OBJECT_ID":"2023-083T","EPOCH":"2023-11-24T01:55:29.371584","MEAN_MOTION":15.02526046,"ECCENTRICITY":0.0001077,"INCLINATION":43.0039,"RA_OF_ASC_NODE":307.587,"ARG_OF_PERICENTER":248.8251,"MEAN_ANOMALY":111.2477,"EPHEMERIS_TYPE":0,"CLASSIFICATION_TYPE":"U","NORAD_CAT_ID":56893,"ELEMENT_SET_NO":999,"REV_AT_EPOCH":2502,"BSTAR":-0.00020516,"MEAN_MOTION_DOT":-2.973e-5,"MEAN_MOTION_DDOT":0},{"OBJECT_NAME":"STARLINK-6144","OBJECT_ID":"2023-083U","EPOCH":"2023-11-24T03:18:26.061696","MEAN_MOTION":15.02526205,"ECCENTRICITY":8.34e-5,"INCLINATION":43.0025,"RA_OF_ASC_NODE":307.1573,"ARG_OF_PERICENTER":248.5013,"MEAN_ANOMALY":111.574,"EPHEMERIS_TYPE":0,"CLASSIFICATION_TYPE":"U","NORAD_CAT_ID":56894,"ELEMENT_SET_NO":999,"REV_AT_EPOCH":2503,"BSTAR":-0.00017602,"MEAN_MOTION_DOT":-2.58e-5,"MEAN_MOTION_DDOT":0},{"OBJECT_NAME":"STARLINK-6208","OBJECT_ID":"2023-083V","EPOCH":"2023-11-24T00:10:10.759008","MEAN_MOTION":15.02535214,"ECCENTRICITY":0.0001013,"INCLINATION":43.0033,"RA_OF_ASC_NODE":307.8956,"ARG_OF_PERICENTER":256.1487,"MEAN_ANOMALY":103.9243,"EPHEMERIS_TYPE":0,"CLASSIFICATION_TYPE":"U","NORAD_CAT_ID":56895,"ELEMENT_SET_NO":999,"REV_AT_EPOCH":2581,"BSTAR":0.00011103,"MEAN_MOTION_DOT":1.297e-5,"MEAN_MOTION_DDOT":0},{"OBJECT_NAME":"STARLINK-6202","OBJECT_ID":"2023-083W","EPOCH":"2023-11-24T03:07:14.645568","MEAN_MOTION":15.02526539,"ECCENTRICITY":0.0001092,"INCLINATION":43.0031,"RA_OF_ASC_NODE":307.0973,"ARG_OF_PERICENTER":225.0869,"MEAN_ANOMALY":134.9885,"EPHEMERIS_TYPE":0,"CLASSIFICATION_TYPE":"U","NORAD_CAT_ID":56896,"ELEMENT_SET_NO":999,"REV_AT_EPOCH":2503,"BSTAR":-0.00018976,"MEAN_MOTION_DOT":-2.765e-5,"MEAN_MOTION_DDOT":0},{"OBJECT_NAME":"STARLINK-6200","OBJECT_ID":"2023-083X","EPOCH":"2023-11-24T00:00:35.014464","MEAN_MOTION":15.0252967,"ECCENTRICITY":0.0001456,"INCLINATION":43.0038,"RA_OF_ASC_NODE":307.8468,"ARG_OF_PERICENTER":271.8311,"MEAN_ANOMALY":88.2365,"EPHEMERIS_TYPE":0,"CLASSIFICATION_TYPE":"U","NORAD_CAT_ID":56897,"ELEMENT_SET_NO":999,"REV_AT_EPOCH":2501,"BSTAR":-0.00013113,"MEAN_MOTION_DOT":-1.974e-5,"MEAN_MOTION_DDOT":0},{"OBJECT_NAME":"STARLINK-6205","OBJECT_ID":"2023-083Y","EPOCH":"2023-11-24T01:21:55.452384","MEAN_MOTION":15.02521206,"ECCENTRICITY":0.0001167,"INCLINATION":43.0038,"RA_OF_ASC_NODE":307.4108,"ARG_OF_PERICENTER":259.328,"MEAN_ANOMALY":100.7431,"EPHEMERIS_TYPE":0,"CLASSIFICATION_TYPE":"U","NORAD_CAT_ID":56898,"ELEMENT_SET_NO":999,"REV_AT_EPOCH":2502,"BSTAR":-0.00031432,"MEAN_MOTION_DOT":-4.445e-5,"MEAN_MOTION_DDOT":0},{"OBJECT_NAME":"STARLINK-6203","OBJECT_ID":"2023-083Z","EPOCH":"2023-11-24T03:02:26.825568","MEAN_MOTION":15.0252469,"ECCENTRICITY":8.84e-5,"INCLINATION":43.0033,"RA_OF_ASC_NODE":307.0736,"ARG_OF_PERICENTER":261.2828,"MEAN_ANOMALY":98.7914,"EPHEMERIS_TYPE":0,"CLASSIFICATION_TYPE":"U","NORAD_CAT_ID":56899,"ELEMENT_SET_NO":999,"REV_AT_EPOCH":2503,"BSTAR":-7.5205e-5,"MEAN_MOTION_DOT":-1.219e-5,"MEAN_MOTION_DDOT":0},{"OBJECT_NAME":"STARLINK-6207","OBJECT_ID":"2023-083AA","EPOCH":"2023-11-23T23:51:31.918752","MEAN_MOTION":15.02530902,"ECCENTRICITY":0.0001309,"INCLINATION":43.0037,"RA_OF_ASC_NODE":295.6631,"ARG_OF_PERICENTER":264.13,"MEAN_ANOMALY":95.9393,"EPHEMERIS_TYPE":0,"CLASSIFICATION_TYPE":"U","NORAD_CAT_ID":56900,"ELEMENT_SET_NO":999,"REV_AT_EPOCH":2515,"BSTAR":-0.00012559,"MEAN_MOTION_DOT":-1.899e-5,"MEAN_MOTION_DDOT":0},{"OBJECT_NAME":"STARLINK-6185","OBJECT_ID":"2023-083AB","EPOCH":"2023-11-24T02:54:27.392832","MEAN_MOTION":15.02536275,"ECCENTRICITY":0.0001047,"INCLINATION":43.0024,"RA_OF_ASC_NODE":307.03,"ARG_OF_PERICENTER":259.9477,"MEAN_ANOMALY":100.1247,"EPHEMERIS_TYPE":0,"CLASSIFICATION_TYPE":"U","NORAD_CAT_ID":56901,"ELEMENT_SET_NO":999,"REV_AT_EPOCH":2503,"BSTAR":-5.226e-6,"MEAN_MOTION_DOT":-2.74e-6,"MEAN_MOTION_DDOT":0}]
